$$SOE
2460728.500000000, A.D. 2025-Feb-22 00:00:00.0000, -3.558250519905796E+08, -1.253225276335827E+08, -2.506380161805605E+07,
2460735.500000000, A.D. 2025-Mar-01 00:00:00.0000, -3.529229643810306E+08, -1.358729900657371E+08, -2.432274905563646E+07,
2460742.500000000, A.D. 2025-Mar-08 00:00:00.0000, -3.497060561865102E+08, -1.463023154732872E+08, -2.355999956369943E+07,
2460749.500000000, A.D. 2025-Mar-15 00:00:00.0000, -3.461792858274470E+08, -1.566020743914114E+08, -2.277637483274163E+07,
2460756.500000000, A.D. 2025-Mar-22 00:00:00.0000, -3.423477710662497E+08, -1.667640397193844E+08, -2.197270054774588E+07,
2460763.500000000, A.D. 2025-Mar-29 00:00:00.0000, -3.382167826963760E+08, -1.767801869045650E+08, -2.114980591032963E+07,
2460770.500000000, A.D. 2025-Apr-05 00:00:00.0000, -3.337917369410272E+08, -1.866426931147860E+08, -2.030852328450748E+07,
2460777.500000000, A.D. 2025-Apr-12 00:00:00.0000, -3.290781884734538E+08, -1.963439353121781E+08, -1.944968777761476E+07,
2460784.500000000, A.D. 2025-Apr-19 00:00:00.0000, -3.240818242272328E+08, -2.058764881274700E+08, -1.857413680807421E+07,
2460791.500000000, A.D. 2025-Apr-26 00:00:00.0000, -3.188084577060161E+08, -2.152331217588572E+08, -1.768270969934210E+07,
2460798.500000000, A.D. 2025-May-03 00:00:00.0000, -3.132640236636978E+08, -2.244067998996173E+08, -1.677624730771551E+07,
2460805.500000000, A.D. 2025-May-10 00:00:00.0000, -3.074545731150848E+08, -2.333906777088919E+08, -1.585559168524463E+07,
2460812.500000000, A.D. 2025-May-17 00:00:00.0000, -3.013862686316637E+08, -2.421780998873663E+08, -1.492158578375001E+07,
2460819.500000000, A.D. 2025-May-24 00:00:00.0000, -2.950653797404212E+08, -2.507625989297763E+08, -1.397507321920110E+07,
2460826.500000000, A.D. 2025-May-31 00:00:00.0000, -2.884982779988502E+08, -2.591378932577848E+08, -1.301689810775697E+07,
2460833.500000000, A.D. 2025-Jun-07 00:00:00.0000, -2.816914321362242E+08, -2.672978840405413E+08, -1.204790483633272E+07,
2460840.500000000, A.D. 2025-Jun-14 00:00:00.0000, -2.746514056128196E+08, -2.752366513806227E+08, -1.106893760341609E+07,
2460847.500000000, A.D. 2025-Jun-21 00:00:00.0000, -2.673848553675204E+08, -2.829484531485794E+08, -1.008084010748415E+07,
2460854.500000000, A.D. 2025-Jun-28 00:00:00.0000, -2.598985286148275E+08, -2.904277247134319E+08, -9.084455524149761E+06,
2460861.500000000, A.D. 2025-Jul-05 00:00:00.0000, -2.521992591969897E+08, -2.976690774219552E+08, -8.080626454802990E+06,
2460868.500000000, A.D. 2025-Jul-12 00:00:00.0000, -2.442939646695460E+08, -3.046672966393286E+08, -7.070194801390514E+06,
2460875.500000000, A.D. 2025-Jul-19 00:00:00.0000, -2.361896439169736E+08, -3.114173399333869E+08, -6.054001630062237E+06,
2460882.500000000, A.D. 2025-Jul-26 00:00:00.0000, -2.278933750750970E+08, -3.179143354673397E+08, -5.032887046233460E+06,
2460889.500000000, A.D. 2025-Aug-02 00:00:00.0000, -2.194123136829951E+08, -3.241535805882566E+08, -4.007690084029362E+06,
2460896.500000000, A.D. 2025-Aug-09 00:00:00.0000, -2.107536910302989E+08, -3.301305406340581E+08, -2.979248612025484E+06,
2460903.500000000, A.D. 2025-Aug-16 00:00:00.0000, -2.019248126123453E+08, -3.358408480290833E+08, -1.948399265956447E+06,
2460910.500000000, A.D. 2025-Aug-23 00:00:00.0000, -1.929330563897139E+08, -3.412803016578681E+08, -9.159774323195964E+05,
2460917.500000000, A.D. 2025-Aug-30 00:00:00.0000, -1.837858705123332E+08, -3.464448658087096E+08, 1.171827468556464E+05,
2460924.500000000, A.D. 2025-Sep-06 00:00:00.0000, -1.744907719150987E+08, -3.513306676913738E+08, 1.150248561391935E+06,
2460931.500000000, A.D. 2025-Sep-13 00:00:00.0000, -1.650553474436551E+08, -3.559339960160711E+08, 2.182389064145043E+06,
2460938.500000000, A.D. 2025-Sep-20 00:00:00.0000, -1.554872542254656E+08, -3.602513022843505E+08, 3.212775112574413E+06,
2460945.500000000, A.D. 2025-Sep-27 00:00:00.0000, -1.457942182177415E+08, -3.642792016873147E+08, 4.240579279298753E+06,
2460952.500000000, A.D. 2025-Oct-04 00:00:00.0000, -1.359840329393004E+08, -3.680144730770031E+08, 5.264975862199575E+06,
2460959.500000000, A.D. 2025-Oct-11 00:00:00.0000, -1.260645587497383E+08, -3.714540589575042E+08, 6.285140952680945E+06,
2460966.500000000, A.D. 2025-Oct-18 00:00:00.0000, -1.160437223812822E+08, -3.745950657730387E+08, 7.300252514820307E+06,
2460973.500000000, A.D. 2025-Oct-25 00:00:00.0000, -1.059295165720069E+08, -3.774347644849486E+08, 8.309490464423805E+06,
2460980.500000000, A.D. 2025-Nov-01 00:00:00.0000, -9.572999974894731E+07, -3.799705914261193E+08, 9.312036746463716E+06,
2460987.500000000, A.D. 2025-Nov-08 00:00:00.0000, -8.545329571514972E+07, -3.822001494690698E+08, 1.030707540612279E+07,
2460994.500000000, A.D. 2025-Nov-15 00:00:00.0000, -7.510759318187661E+07, -3.841212095708418E+08, 1.129379263619106E+07,
2461001.500000000, A.D. 2025-Nov-22 00:00:00.0000, -6.470114473220121E+07, -3.857317124786605E+08, 1.227137678298971E+07,
2461008.500000000, A.D. 2025-Nov-29 00:00:00.0000, -5.424226535786224E+07, -3.870297694650386E+08, 1.323901841876355E+07,
2461015.500000000, A.D. 2025-Dec-06 00:00:00.0000, -4.373933283512912E+07, -3.880136622309625E+08, 1.419591067940737E+07,
2461022.500000000, A.D. 2025-Dec-13 00:00:00.0000, -3.320078949357904E+07, -3.886818453496575E+08, 1.514124955335058E+07,
2461029.500000000, A.D. 2025-Dec-20 00:00:00.0000, -2.263514187256321E+07, -3.890329502312445E+08, 1.607423388611485E+07,
2461036.500000000, A.D. 2025-Dec-27 00:00:00.0000, -1.205095932832586E+07, -3.890657880190151E+08, 1.699406541230087E+07,
2461043.500000000, A.D. 2026-Jan-03 00:00:00.0000, -1.456873038978624E+06, -3.887793520311055E+08, 1.789994889968020E+07,
2461050.500000000, A.D. 2026-Jan-10 00:00:00.0000, 9.138424717605880E+06, -3.881728204232546E+08, 1.879109234054282E+07,
2461057.500000000, A.D. 2026-Jan-17 00:00:00.0000, 1.972618126335919E+07, -3.872455591629949E+08, 1.966670716213045E+07,
2461064.500000000, A.D. 2026-Jan-24 00:00:00.0000, 3.029758429334560E+07, -3.859971252946625E+08, 2.052600845189360E+07,
2461071.500000000, A.D. 2026-Jan-31 00:00:00.0000, 4.084376276355501E+07, -3.844272705067511E+08, 2.136821519642514E+07,
2461078.500000000, A.D. 2026-Feb-07 00:00:00.0000, 5.135578797046066E+07, -3.825359450631024E+08, 2.219255052587725E+07,
2461085.500000000, A.D. 2026-Feb-14 00:00:00.0000, 6.182467509035026E+07, -3.803233021156227E+08, 2.299824194172768E+07,
2461092.500000000, A.D. 2026-Feb-21 00:00:00.0000, 7.224138558126728E+07, -3.777897018214316E+08, 2.378452154165998E+07,
2461099.500000000, A.D. 2026-Feb-28 00:00:00.0000, 8.259682937903890E+07, -3.749357141086026E+08, 2.455062643709850E+07,
2461106.500000000, A.D. 2026-Mar-07 00:00:00.0000, 9.288186484663764E+07, -3.717621220356091E+08, 2.529579939412978E+07,
2461113.500000000, A.D. 2026-Mar-14 00:00:00.0000, 1.030872992728786E+08, -3.682699280716627E+08, 2.601928925368591E+07,
2461120.500000000, A.D. 2026-Mar-21 00:00:00.0000, 1.132038917252197E+08, -3.644603603965685E+08, 2.672035120590635E+07,
2461127.500000000, A.D. 2026-Mar-28 00:00:00.0000, 1.232223562689449E+08, -3.603348781883255E+08, 2.739824718900472E+07,
2461134.500000000, A.D. 2026-Apr-04 00:00:00.0000, 1.331333649708538E+08, -3.558951768592036E+08, 2.805224639102554E+07,
2461141.500000000, A.D. 2026-Apr-11 00:00:00.0000, 1.429275509839419E+08, -3.511431935938474E+08, 2.868162580186890E+07,
2461148.500000000, A.D. 2026-Apr-18 00:00:00.0000, 1.525955118955158E+08, -3.460811131883562E+08, 2.928567080232818E+07,
2461155.500000000, A.D. 2026-Apr-25 00:00:00.0000, 1.621278134081957E+08, -3.407113741659312E+08, 2.986367578884982E+07,
2461162.500000000, A.D. 2026-May-02 00:00:00.0000, 1.715149934091946E+08, -3.350366751865458E+08, 3.041494483019593E+07,
2461169.500000000, A.D. 2026-May-09 00:00:00.0000, 1.807475665791983E+08, -3.290599818031189E+08, 3.093879234064482E+07,
2461176.500000000, A.D. 2026-May-16 00:00:00.0000, 1.898160299470327E+08, -3.227845334121070E+08, 3.143454374836828E+07,
2461183.500000000, A.D. 2026-May-23 00:00:00.0000, 1.987108694698392E+08, -3.162138493620610E+08, 3.190153624008168E+07,
2461190.500000000, A.D. 2026-May-30 00:00:00.0000, 2.074225655867305E+08, -3.093517338836139E+08, 3.233911980052462E+07,
2461197.500000000, A.D. 2026-Jun-06 00:00:00.0000, 2.159415974544242E+08, -3.022022830919942E+08, 3.274665830917542E+07,
2461204.500000000, A.D. 2026-Jun-13 00:00:00.0000, 2.242584495587271E+08, -2.947698938371850E+08, 3.312353037483165E+07,
2461211.500000000, A.D. 2026-Jun-20 00:00:00.0000, 2.323636202305243E+08, -2.870592714495765E+08, 3.346913019430923E+07,
2461218.500000000, A.D. 2026-Jun-27 00:00:00.0000, 2.402476303969806E+08, -2.790754366931539E+08, 3.378286856447171E+07,
2461225.500000000, A.D. 2026-Jul-04 00:00:00.0000, 2.479010325961660E+08, -2.708237326697490E+08, 3.406417398518357E+07,
2461232.500000000, A.D. 2026-Jul-11 00:00:00.0000, 2.553144205370062E+08, -2.623098317715384E+08, 3.431249381984649E+07,
2461239.500000000, A.D. 2026-Jul-18 00:00:00.0000, 2.624784393245621E+08, -2.535397426183245E+08, 3.452729550772206E+07,
2461246.500000000, A.D. 2026-Jul-25 00:00:00.0000, 2.693837964006911E+08, -2.445198169359415E+08, 3.470806782631506E+07,
2461253.500000000, A.D. 2026-Aug-01 00:00:00.0000, 2.760212732711172E+08, -2.352567563785856E+08, 3.485432219503610E+07,
2461260.500000000, A.D. 2026-Aug-08 00:00:00.0000, 2.823817382547445E+08, -2.257576192798779E+08, 3.496559399632201E+07,
2461267.500000000, A.D. 2026-Aug-15 00:00:00.0000, 2.884561606914575E+08, -2.160298268268553E+08, 3.504144391199531E+07,
2461274.500000000, A.D. 2026-Aug-22 00:00:00.0000, 2.942356258679044E+08, -2.060811673789233E+08, 3.508145944413038E+07,
2461281.500000000, A.D. 2026-Aug-29 00:00:00.0000, 2.997113483875099E+08, -1.959198002446926E+08, 3.508525671697301E+07,
2461288.500000000, A.D. 2026-Sep-05 00:00:00.0000, 3.048746861277692E+08, -1.855542617172224E+08, 3.505248212694252E+07,
$$EOE